OBJECT_NAME,OBJECT_ID,EPOCH,MEAN_MOTION,ECCENTRICITY,INCLINATION,RA_OF_ASC_NODE,ARG_OF_PERICENTER,MEAN_ANOMALY,EPHEMERIS_TYPE,CLASSIFICATION_TYPE,NORAD_CAT_ID,ELEMENT_SET_NO,REV_AT_EPOCH,BSTAR,MEAN_MOTION_DOT,MEAN_MOTION_DDOT
STARLINK-4621,2022-105AE,2026-07-06T15:40:59.421792,15.05670962,.00016864,97.2850,65.6743,108.2706,251.8706,0,U,53676,999,21113,-.43659617E-3,-.6353E-4,0
SHERPA-LTC2,2022-107BG,2026-07-06T07:03:55.037664,14.69869542,.03927297,53.2364,139.4369,279.7236,75.9603,0,U,53754,999,20535,.21892845E-3,.4157E-4,0
CENTISPACE-1 S3,2022-108A,2026-07-07T14:10:32.982528,14.61277511,.00105252,53.5342,330.8881,46.9727,313.2128,0,U,53757,999,20451,.11022412E-3,.359E-5,0
CENTISPACE-1 S4,2022-108B,2026-07-07T13:34:09.772032,14.61964854,.00097525,53.5317,328.4136,36.3304,323.8332,0,U,53758,999,20454,.14011382E-3,.517E-5,0
BLUEWALKER-3,2022-111AL,2026-07-07T07:39:49.312800,15.38543085,.00047699,53.2292,299.4402,233.0498,127.0071,0,U,53807,999,21330,.15189013E-3,.5474E-4,0
YUNHAI-1 03,2022-115A,2026-07-07T13:55:00.359328,14.32732031,.00046615,98.5539,186.4684,2.8550,357.2660,0,U,53877,999,19843,.10994105E-3,.256E-5,0
CENTISPACE-1 S5,2022-126A,2026-07-07T10:38:55.992768,14.63046440,.00146433,54.9983,131.8973,109.8528,250.4046,0,U,54020,999,20000,.16965411E-3,.688E-5,0
CENTISPACE-1 S6,2022-126B,2026-07-07T12:22:07.218912,14.62308490,.00164476,54.9986,133.5710,110.8739,249.4018,0,U,54021,999,19997,.12665565E-3,.456E-5,0
OTB-3-GAZELLE,2022-127A,2026-07-07T10:48:36.832320,14.42681984,.0014207,98.3954,179.8470,124.3715,235.8821,0,U,54023,999,19728,.51029479E-4,.127E-5,0
ASO-S,2022-129A,2026-07-07T13:57:31.758048,14.52072145,.00150908,98.2752,193.3702,34.7094,325.5083,0,U,54029,999,19838,.57763444E-4,.189E-5,0
HJ-2E,2022-132A,2026-07-07T14:15:20.576160,15.22624029,.00182367,97.3805,192.6061,300.0721,59.8707,0,U,54035,999,20752,.22249138E-3,.5126E-4,0
COSMOS 2561,2022-137A,2026-07-07T12:53:17.917152,15.52233315,.0008328,96.9171,246.7813,315.7006,44.3581,0,U,54109,999,20950,.15399E-3,.9263E-4,0
GONETS-M 23,2022-139A,2026-07-07T15:05:02.374944,12.42891654,.00218124,82.5087,335.5899,174.6305,185.5013,0,U,54150,999,16818,.2087034E-3,.39E-6,0
GONETS-M 24,2022-139B,2026-07-07T14:26:15.489024,12.42892256,.00168665,82.5005,334.6524,184.3475,175.7460,0,U,54151,999,16818,.17837847E-3,.35E-6,0
GONETS-M 25,2022-139C,2026-07-07T14:06:42.177024,12.42890675,.00207984,82.5070,335.3583,183.4290,176.6650,0,U,54152,999,16818,.15458021E-3,.31E-6,0
SKIF-D,2022-139D,2026-07-06T05:50:44.187072,5.00428231,.00074035,89.9492,96.6626,191.0799,168.9710,0,U,54153,999,6506,0,.1E-6,0
MATS,2022-147A,2026-07-07T10:54:56.918016,15.05479824,.00141577,97.6831,189.9649,125.9330,234.3213,0,U,54227,999,20081,.12912714E-3,.1797E-4,0
EOS-6 (OCEANSAT-3),2022-158A,2026-07-07T15:08:22.625952,14.46981491,.0000264,98.3548,286.5545,69.9234,290.1987,0,U,54361,999,19079,.71385088E-4,.216E-5,0
DONGPO 09,2022-167D,2026-07-07T14:20:57.001344,15.36813196,.00032339,97.6918,0.5242,69.4984,290.6606,0,U,54685,999,19858,.23205231E-3,.8263E-4,0
DONGPO 08,2022-167E,2026-07-07T14:44:45.710016,15.34077670,.00094008,97.6882,357.6221,96.8329,263.3983,0,U,54686,999,19845,.23008288E-3,.7512E-4,0
2022-167F,2022-167F,2026-07-07T04:18:18.082944,16.06863953,.00054894,97.6045,18.7609,246.7937,113.2766,0,U,54687,999,20002,.68258296E-3,.518976E-2,.13318894E-3
DONGPO 10,2022-167H,2026-07-07T14:38:45.829824,15.34892407,.0005581,97.6963,359.6176,51.7000,308.4743,0,U,54689,999,19849,.22525142E-3,.7539E-4,0
JILIN-1 GAOFEN 03D48,2022-167P,2026-07-07T14:20:36.312864,15.35679413,.0007025,97.6898,358.9896,54.0839,306.1054,0,U,54695,999,19852,.22837236E-3,.7843E-4,0
STAR VIBE,2023-001A,2026-07-07T15:57:09.338688,15.43207802,.00062178,97.3157,253.2177,54.4971,305.6856,0,U,55009,999,19538,.22300573E-3,.9817E-4,0
BRO-8,2023-001C,2026-07-07T13:58:03.397728,15.50393767,.00056373,97.3190,254.0764,65.2905,294.8933,0,U,55011,999,19536,.4158446E-3,.23585E-3,0
CONNECTA T1.2,2023-001D,2026-07-07T03:57:07.256448,15.52395211,.00046772,97.3240,259.2291,38.2413,321.9171,0,U,55012,999,19564,.5243136E-3,.31987E-3,0
BIRKELAND,2023-001G,2026-07-07T14:39:50.946912,15.40448756,.00072359,97.3334,256.6367,45.8381,314.3459,0,U,55015,999,19549,.14687115E-3,.5866E-4,0
ION SCV-008,2023-001AU,2026-07-06T21:00:16.014240,15.28814771,.00133778,97.5709,284.5261,305.9188,54.0810,0,U,55051,999,19434,.18516259E-3,.5118E-4,0
ION SCV-007,2023-001BD,2026-07-07T02:35:03.302304,14.77571345,.00109008,97.8996,250.7267,271.5873,88.4089,0,U,55060,999,18919,.58427738E-4,.367E-5,0
HUYGENS,2023-001CN,2026-07-07T14:39:58.233888,15.40448532,.00092937,97.3238,255.8401,20.8295,339.3329,0,U,55093,999,19551,.17362979E-3,.6954E-4,0
