STARLINK-4621           
1 53676U 22105AE  26187.65346553 -.00006353  00000+0 -43660-3 0  9998
2 53676  97.2850  65.6743 0001686 108.2706 251.8706 15.05670962211134
SHERPA-LTC2             
1 53754U 22107BG  26187.29438701  .00004157  00000+0  21893-3 0  9996
2 53754  53.2364 139.4369 0392729 279.7236  75.9603 14.69869542205351
CENTISPACE-1 S3         
1 53757U 22108A   26188.59065952  .00000359  00000+0  11022-3 0  9991
2 53757  53.5342 330.8881 0010525  46.9727 313.2128 14.61277511204517
CENTISPACE-1 S4         
1 53758U 22108B   26188.56539088  .00000517  00000+0  14011-3 0  9992
2 53758  53.5317 328.4136 0009752  36.3304 323.8332 14.61964854204540
BLUEWALKER-3            
1 53807U 22111AL  26188.31932075  .00005474  00000+0  15189-3 0  9991
2 53807  53.2292 299.4402 0004769 233.0498 127.0071 15.38543085213302
YUNHAI-1 03             
1 53877U 22115A   26188.57986527  .00000256  00000+0  10994-3 0  9993
2 53877  98.5539 186.4684 0004661   2.8550 357.2660 14.32732031198435
CENTISPACE-1 S5         
1 54020U 22126A   26188.44370362  .00000688  00000+0  16965-3 0  9999
2 54020  54.9983 131.8973 0014643 109.8528 250.4046 14.63046440200009
CENTISPACE-1 S6         
1 54021U 22126B   26188.51536133  .00000456  00000+0  12666-3 0  9995
2 54021  54.9986 133.5710 0016447 110.8739 249.4018 14.62308490199976
OTB-3-GAZELLE           
1 54023U 22127A   26188.45042630  .00000127  00000+0  51029-4 0  9997
2 54023  98.3954 179.8470 0014207 124.3715 235.8821 14.42681984197280
ASO-S                   
1 54029U 22129A   26188.58161757  .00000189  00000+0  57763-4 0  9990
2 54029  98.2752 193.3702 0015090  34.7094 325.5083 14.52072145198388
HJ-2E                   
1 54035U 22132A   26188.59398815  .00005126  00000+0  22249-3 0  9995
2 54035  97.3805 192.6061 0018236 300.0721  59.8707 15.22624029207524
COSMOS 2561             
1 54109U 22137A   26188.53701293  .00009263  00000+0  15399-3 0  9998
2 54109  96.9171 246.7813 0008328 315.7006  44.3581 15.52233315209509
GONETS-M 23             
1 54150U 22139A   26188.62849971  .00000039  00000+0  20870-3 0  9994
2 54150  82.5087 335.5899 0021812 174.6305 185.5013 12.42891654168188
GONETS-M 24             
1 54151U 22139B   26188.60156816  .00000035  00000+0  17838-3 0  9998
2 54151  82.5005 334.6524 0016866 184.3475 175.7460 12.42892256168189
GONETS-M 25             
1 54152U 22139C   26188.58798816  .00000031  00000+0  15458-3 0  9990
2 54152  82.5070 335.3583 0020798 183.4290 176.6650 12.42890675168183
SKIF-D                  
1 54153U 22139D   26187.24356698  .00000010  00000+0  00000+0 0  9991
2 54153  89.9492  96.6626 0007403 191.0799 168.9710  5.00428231 65060
MATS                    
1 54227U 22147A   26188.45482544  .00001797  00000+0  12913-3 0  9999
2 54227  97.6831 189.9649 0014157 125.9330 234.3213 15.05479824200817
EOS-6 (OCEANSAT-3)      
1 54361U 22158A   26188.63081743  .00000216  00000+0  71385-4 0  9990
2 54361  98.3548 286.5545 0000264  69.9234 290.1987 14.46981491190797
DONGPO 09               
1 54685U 22167D   26188.59788196  .00008263  00000+0  23205-3 0  9997
2 54685  97.6918   0.5242 0003233  69.4984 290.6606 15.36813196198587
DONGPO 08               
1 54686U 22167E   26188.61441794  .00007512  00000+0  23008-3 0  9998
2 54686  97.6882 357.6221 0009400  96.8329 263.3983 15.34077670198458
2022-167F               
1 54687U 22167F   26188.17937596  .00518976  13319-3  68258-3 0  9998
2 54687  97.6045  18.7609 0005489 246.7937 113.2766 16.06863953200025
DONGPO 10               
1 54689U 22167H   26188.61025266  .00007539  00000+0  22525-3 0  9995
2 54689  97.6963 359.6176 0005581  51.7000 308.4743 15.34892407198496
JILIN-1 GAOFEN 03D48    
1 54695U 22167P   26188.59764251  .00007843  00000+0  22837-3 0  9997
2 54695  97.6898 358.9896 0007025  54.0839 306.1054 15.35679413198527
STAR VIBE               
1 55009U 23001A   26188.66469142  .00009817  00000+0  22301-3 0  9993
2 55009  97.3157 253.2177 0006217  54.4971 305.6856 15.43207802195387
BRO-8                   
1 55011U 23001C   26188.58198377  .00023585  00000+0  41584-3 0  9998
2 55011  97.3190 254.0764 0005637  65.2905 294.8933 15.50393767195367
CONNECTA T1.2           
1 55012U 23001D   26188.16466732  .00031987  00000+0  52431-3 0  9994
2 55012  97.3240 259.2291 0004677  38.2413 321.9171 15.52395211195648
BIRKELAND               
1 55015U 23001G   26188.61100633  .00005866  00000+0  14687-3 0  9990
2 55015  97.3334 256.6367 0007235  45.8381 314.3459 15.40448756195499
ION SCV-008             
1 55051U 23001AU  26187.87518535  .00005118  00000+0  18516-3 0  9996
2 55051  97.5709 284.5261 0013377 305.9188  54.0810 15.28814771194341
ION SCV-007             
1 55060U 23001BD  26188.10767711  .00000367  00000+0  58428-4 0  9993
2 55060  97.8996 250.7267 0010900 271.5873  88.4089 14.77571345189197
HUYGENS                 
1 55093U 23001CN  26188.61109067  .00006954  00000+0  17363-3 0  9999
2 55093  97.3238 255.8401 0009293  20.8295 339.3329 15.40448532195519
